{"type": "FeatureCollection", "features": [ {"type": "Feature", "properties": {"norad_id": 66828, "name": "STARLINK-35982", "group": "last-30-days", "lat": 34.79824436331501, "lon": -18.734509904291595, "alt_km": 407.72371261795433, "timestamp": "2025-12-20T22:39:09.407867+00:00", "meta": {"OBJECT_NAME": "STARLINK-35982", "OBJECT_ID": "2025-280H", "EPOCH": "2025-12-20T14:00:03.000384", "MEAN_MOTION": 15.52513182, "ECCENTRICITY": 0.00030956, "INCLINATION": 69.9999, "RA_OF_ASC_NODE": 176.9154, "ARG_OF_PERICENTER": 268.3679, "MEAN_ANOMALY": 19.9661, "EPHEMERIS_TYPE": 0, "CLASSIFICATION_TYPE": "U", "NORAD_CAT_ID": 66828, "ELEMENT_SET_NO": 999, "REV_AT_EPOCH": 415, "BSTAR": 0.00029296611, "MEAN_MOTION_DOT": 0.00017892, "MEAN_MOTION_DDOT": 0}, "tle": {"line1": "1 66828U 25280H   25354.58336806  .00017892  00000+0  29297-3 0  9993", "line2": "2 66828  69.9999 176.9154 0003095 268.3679  19.9661 15.52513182  4159"}}, "geometry": {"type": "Point", "coordinates": [-18.734509904291595, 34.79824436331501]}}, {"type": "Feature", "properties": {"norad_id": 66829, "name": "STARLINK-36084", "group": "last-30-days", "lat": 36.63226834781612, "lon": -19.782759749486953, "alt_km": 407.4054472449425, "timestamp": "2025-12-20T22:39:09.407877+00:00", "meta": {"OBJECT_NAME": "STARLINK-36084", "OBJECT_ID": "2025-280J", "EPOCH": "2025-12-20T14:00:03.000384", "MEAN_MOTION": 15.52516803, "ECCENTRICITY": 0.00030124, "INCLINATION": 69.9999, "RA_OF_ASC_NODE": 176.9174, "ARG_OF_PERICENTER": 266.7843, "MEAN_ANOMALY": 19.5253, "EPHEMERIS_TYPE": 0, "CLASSIFICATION_TYPE": "U", "NORAD_CAT_ID": 66829, "ELEMENT_SET_NO": 999, "REV_AT_EPOCH": 399, "BSTAR": 0.00025617975, "MEAN_MOTION_DOT": 0.00015622, "MEAN_MOTION_DDOT": 0}, "tle": {"line1": "1 66829U 25280J   25354.58336806  .00015622  00000+0  25618-3 0  9996", "line2": "2 66829  69.9999 176.9174 0003012 266.7843  19.5253 15.52516803  3993"}}, "geometry": {"type": "Point", "coordinates": [-19.782759749486953, 36.63226834781612]}}, {"type": "Feature", "properties": {"norad_id": 66830, "name": "STARLINK-35881", "group": "last-30-days", "lat": 33.053101909589614, "lon": -17.785866140432606, "alt_km": 407.8932981570824, "timestamp": "2025-12-20T22:39:09.407886+00:00", "meta": {"OBJECT_NAME": "STARLINK-35881", "OBJECT_ID": "2025-280K", "EPOCH": "2025-12-20T14:00:03.000384", "MEAN_MOTION": 15.52509633, "ECCENTRICITY": 0.00031681, "INCLINATION": 69.9999, "RA_OF_ASC_NODE": 176.9116, "ARG_OF_PERICENTER": 265.9531, "MEAN_ANOMALY": 24.2979, "EPHEMERIS_TYPE": 0, "CLASSIFICATION_TYPE": "U", "NORAD_CAT_ID": 66830, "ELEMENT_SET_NO": 999, "REV_AT_EPOCH": 415, "BSTAR": 0.00039850594, "MEAN_MOTION_DOT": 0.00024416, "MEAN_MOTION_DDOT": 0}, "tle": {"line1": "1 66830U 25280K   25354.58336806  .00024416  00000+0  39851-3 0  9993", "line2": "2 66830  69.9999 176.9116 0003168 265.9531  24.2979 15.52509633  4158"}}, "geometry": {"type": "Point", "coordinates": [-17.785866140432606, 33.053101909589614]}}, {"type": "Feature", "properties": {"norad_id": 66831, "name": "STARLINK-35788", "group": "last-30-days", "lat": 31.29767167866559, "lon": -16.869396171923853, "alt_km": 408.09236981492904, "timestamp": "2025-12-20T22:39:09.407895+00:00", "meta": {"OBJECT_NAME": "STARLINK-35788", "OBJECT_ID": "2025-280L", "EPOCH": "2025-12-20T14:00:03.000384", "MEAN_MOTION": 15.52509212, "ECCENTRICITY": 0.00031656, "INCLINATION": 69.9998, "RA_OF_ASC_NODE": 176.9111, "ARG_OF_PERICENTER": 265.0881, "MEAN_ANOMALY": 27.0826, "EPHEMERIS_TYPE": 0, "CLASSIFICATION_TYPE": "U", "NORAD_CAT_ID": 66831, "ELEMENT_SET_NO": 999, "REV_AT_EPOCH": 415, "BSTAR": 0.00034992595, "MEAN_MOTION_DOT": 0.0002141, "MEAN_MOTION_DDOT": 0}, "tle": {"line1": "1 66831U 25280L   25354.58336806  .00021410  00000+0  34993-3 0  9997", "line2": "2 66831  69.9998 176.9111 0003165 265.0881  27.0826 15.52509212  4154"}}, "geometry": {"type": "Point", "coordinates": [-16.869396171923853, 31.29767167866559]}}, {"type": "Feature", "properties": {"norad_id": 66832, "name": "STARLINK-35768", "group": "last-30-days", "lat": 29.539342029095206, "lon": -15.990483200489445, "alt_km": 408.27120812629346, "timestamp": "2025-12-20T22:39:09.407904+00:00", "meta": {"OBJECT_NAME": "STARLINK-35768", "OBJECT_ID": "2025-280M", "EPOCH": "2025-12-20T14:00:03.000384", "MEAN_MOTION": 15.52517512, "ECCENTRICITY": 0.00031896, "INCLINATION": 70, "RA_OF_ASC_NODE": 176.9081, "ARG_OF_PERICENTER": 264.0039, "MEAN_ANOMALY": 30.0732, "EPHEMERIS_TYPE": 0, "CLASSIFICATION_TYPE": "U", "NORAD_CAT_ID": 66832, "ELEMENT_SET_NO": 999, "REV_AT_EPOCH": 415, "BSTAR": 0.00025806939, "MEAN_MOTION_DOT": 0.00015739, "MEAN_MOTION_DDOT": 0}, "tle": {"line1": "1 66832U 25280M   25354.58336806  .00015739  00000+0  25807-3 0  9999", "line2": "2 66832  70.0000 176.9081 0003189 264.0039  30.0732 15.52517512  4150"}}, "geometry": {"type": "Point", "coordinates": [-15.990483200489445, 29.539342029095206]}}, {"type": "Feature", "properties": {"norad_id": 66833, "name": "STARLINK-35858", "group": "last-30-days", "lat": 27.776919890098373, "lon": -15.142430535052322, "alt_km": 408.42661548566684, "timestamp": "2025-12-20T22:39:09.407913+00:00", "meta": {"OBJECT_NAME": "STARLINK-35858", "OBJECT_ID": "2025-280N", "EPOCH": "2025-12-20T14:00:03.000384", "MEAN_MOTION": 15.52509735, "ECCENTRICITY": 0.00032714, "INCLINATION": 70, "RA_OF_ASC_NODE": 176.9053, "ARG_OF_PERICENTER": 261.5183, "MEAN_ANOMALY": 34.4783, "EPHEMERIS_TYPE": 0, "CLASSIFICATION_TYPE": "U", "NORAD_CAT_ID": 66833, "ELEMENT_SET_NO": 999, "REV_AT_EPOCH": 415, "BSTAR": 0.00041031523, "MEAN_MOTION_DOT": 0.00025147, "MEAN_MOTION_DDOT": 0}, "tle": {"line1": "1 66833U 25280N   25354.58336806  .00025147  00000+0  41032-3 0  9992", "line2": "2 66833  70.0000 176.9053 0003271 261.5183  34.4783 15.52509735  4156"}}, "geometry": {"type": "Point", "coordinates": [-15.142430535052322, 27.776919890098373]}}, {"type": "Feature", "properties": {"norad_id": 66834, "name": "STARLINK-35840", "group": "last-30-days", "lat": 26.026864800269674, "lon": -14.329633561618687, "alt_km": 408.57919321925056, "timestamp": "2025-12-20T22:39:09.407922+00:00", "meta": {"OBJECT_NAME": "STARLINK-35840", "OBJECT_ID": "2025-280P", "EPOCH": "2025-12-20T14:00:03.000384", "MEAN_MOTION": 15.52531201, "ECCENTRICITY": 0.0003181, "INCLINATION": 69.9999, "RA_OF_ASC_NODE": 176.9025, "ARG_OF_PERICENTER": 262.0459, "MEAN_ANOMALY": 35.8156, "EPHEMERIS_TYPE": 0, "CLASSIFICATION_TYPE": "U", "NORAD_CAT_ID": 66834, "ELEMENT_SET_NO": 999, "REV_AT_EPOCH": 415, "BSTAR": 0.00039789936, "MEAN_MOTION_DOT": 0.00024397, "MEAN_MOTION_DDOT": 0}, "tle": {"line1": "1 66834U 25280P   25354.58336806  .00024397  00000+0  39790-3 0  9997", "line2": "2 66834  69.9999 176.9025 0003181 262.0459  35.8156 15.52531201  4154"}}, "geometry": {"type": "Point", "coordinates": [-14.329633561618687, 26.026864800269674]}}, {"type": "Feature", "properties": {"norad_id": 66835, "name": "STARLINK-35890", "group": "last-30-days", "lat": 24.23794984449908, "lon": -13.524796686995613, "alt_km": 408.87208623221795, "timestamp": "2025-12-20T22:39:09.407934+00:00", "meta": {"OBJECT_NAME": "STARLINK-35890", "OBJECT_ID": "2025-280Q", "EPOCH": "2025-12-20T14:00:03.000384", "MEAN_MOTION": 15.52523963, "ECCENTRICITY": 0.00030486, "INCLINATION": 70, "RA_OF_ASC_NODE": 176.9003, "ARG_OF_PERICENTER": 264.4201, "MEAN_ANOMALY": 35.379, "EPHEMERIS_TYPE": 0, "CLASSIFICATION_TYPE": "U", "NORAD_CAT_ID": 66835, "ELEMENT_SET_NO": 999, "REV_AT_EPOCH": 415, "BSTAR": 0.00041745206, "MEAN_MOTION_DOT": 0.00025601, "MEAN_MOTION_DDOT": 0}, "tle": {"line1": "1 66835U 25280Q   25354.58336806  .00025601  00000+0  41745-3 0  9990", "line2": "2 66835  70.0000 176.9003 0003048 264.4201  35.3790 15.52523963  4155"}}, "geometry": {"type": "Point", "coordinates": [-13.524796686995613, 24.23794984449908]}}, {"type": "Feature", "properties": {"norad_id": 66836, "name": "STARLINK-35838", "group": "last-30-days", "lat": 22.444019305645476, "lon": -12.74242933879439, "alt_km": 409.22949928505386, "timestamp": "2025-12-20T22:39:09.407942+00:00", "meta": {"OBJECT_NAME": "STARLINK-35838", "OBJECT_ID": "2025-280R", "EPOCH": "2025-12-20T14:00:03.000384", "MEAN_MOTION": 15.52509989, "ECCENTRICITY": 0.00031301, "INCLINATION": 70.0002, "RA_OF_ASC_NODE": 176.8976, "ARG_OF_PERICENTER": 266.425, "MEAN_ANOMALY": 35.3259, "EPHEMERIS_TYPE": 0, "CLASSIFICATION_TYPE": "U", "NORAD_CAT_ID": 66836, "ELEMENT_SET_NO": 999, "REV_AT_EPOCH": 415, "BSTAR": 0.0003672693, "MEAN_MOTION_DOT": 0.00022483, "MEAN_MOTION_DDOT": 0}, "tle": {"line1": "1 66836U 25280R   25354.58336806  .00022483  00000+0  36727-3 0  9990", "line2": "2 66836  70.0002 176.8976 0003130 266.4250  35.3259 15.52509989  4156"}}, "geometry": {"type": "Point", "coordinates": [-12.74242933879439, 22.444019305645476]}}, {"type": "Feature", "properties": {"norad_id": 66837, "name": "STARLINK-35729", "group": "last-30-days", "lat": 20.665786303253206, "lon": -11.987421878375082, "alt_km": 409.56931819989586, "timestamp": "2025-12-20T22:39:09.407952+00:00", "meta": {"OBJECT_NAME": "STARLINK-35729", "OBJECT_ID": "2025-280S", "EPOCH": "2025-12-20T14:00:03.000384", "MEAN_MOTION": 15.52517984, "ECCENTRICITY": 0.00035377, "INCLINATION": 70.0002, "RA_OF_ASC_NODE": 176.8959, "ARG_OF_PERICENTER": 267.6361, "MEAN_ANOMALY": 36.0223, "EPHEMERIS_TYPE": 0, "CLASSIFICATION_TYPE": "U", "NORAD_CAT_ID": 66837, "ELEMENT_SET_NO": 999, "REV_AT_EPOCH": 415, "BSTAR": 0.00027221251, "MEAN_MOTION_DOT": 0.00016614, "MEAN_MOTION_DDOT": 0}, "tle": {"line1": "1 66837U 25280S   25354.58336806  .00016614  00000+0  27221-3 0  9999", "line2": "2 66837  70.0002 176.8959 0003537 267.6361  36.0223 15.52517984  4158"}}, "geometry": {"type": "Point", "coordinates": [-11.987421878375082, 20.665786303253206]}}]}